COMMENT,ORIGINATOR,NORAD_CAT_ID,OBJECT_NAME,OBJECT_TYPE,CLASSIFICATION_TYPE,INTLDES,EPOCH,EPOCH_MICROSECONDS,MEAN_MOTION,ECCENTRICITY,INCLINATION,RA_OF_ASC_NODE,ARG_OF_PERICENTER,MEAN_ANOMALY,EPHEMERIS_TYPE,ELEMENT_SET_NO,REV_AT_EPOCH,BSTAR,MEAN_MOTION_DOT,MEAN_MOTION_DDOT,FILE,TLE_LINE0,TLE_LINE1,TLE_LINE2,OBJECT_ID,OBJECT_NUMBER,SEMIMAJOR_AXIS,PERIOD,APOGEE,PERIGEE,DECAYED
GENERATED VIA SPACETRACK.ORG API,18 SPCS,50803,STARLINK-3321,PAYLOAD,U,22001A,2024-07-18 15:30:07,818048,15.08842901,0.0001127,53.2181,338.3335,87.1337,272.9784,0,999,14124,8.022e-05,9.89e-06,0.0,4385695,0 STARLINK-3321,1 50803U 22001A   24200.64592382  .00000989  00000-0  80220-4 0  9990,2 50803  53.2181 338.3335 0001127  87.1337 272.9784 15.08842901141245,2022-001A,50803,6917.872,95.437,540.516,538.957,1
GENERATED VIA SPACETRACK.ORG API,18 SPCS,50803,STARLINK-3321,PAYLOAD,U,22001A,2024-07-18 15:30:07,818048,15.08842901,0.0001127,53.2181,338.3335,87.1337,272.9784,0,999,13997,8.022e-05,9.89e-06,0.0,4386044,0 STARLINK-3321,1 50803U 22001A   24200.64592382  .00000989  00000-0  80220-4 0  9990,2 50803  53.2181 338.3335 0001127  87.1337 272.9784 15.08842901139972,2022-001A,50803,6917.872,95.437,540.516,538.957,1
GENERATED VIA SPACETRACK.ORG API,18 SPCS,50803,STARLINK-3321,PAYLOAD,U,22001A,2024-07-19 15:20:54,280032,15.0884259,0.0001402,53.2187,333.871,90.4248,269.6905,0,999,14012,0.00026316,3.903e-05,0.0,4387281,0 STARLINK-3321,1 50803U 22001A   24201.63951713  .00003903  00000-0  26316-3 0  9991,2 50803  53.2187 333.8710 0001402  90.4248 269.6905 15.08842590140120,2022-001A,50803,6917.872,95.437,540.707,538.768,1
GENERATED VIA SPACETRACK.ORG API,18 SPCS,50803,STARLINK-3321,PAYLOAD,U,22001A,2024-07-20 02:28:36,247584,15.08845367,0.00012,53.2173,331.7902,80.0623,280.0504,0,999,14146,0.00014058,1.95e-05,0.0,4388119,0 STARLINK-3321,1 50803U 22001A   24202.10319731  .00001950  00000-0  14058-3 0  9992,2 50803  53.2173 331.7902 0001200  80.0623 280.0504 15.08845367141468,2022-001A,50803,6917.864,95.437,540.559,538.899,1
GENERATED VIA SPACETRACK.ORG API,18 SPCS,50803,STARLINK-3321,PAYLOAD,U,22001A,2024-07-20 12:00:56,425248,15.08830859,0.000126,53.2182,330.0068,93.6965,266.4171,0,999,14152,-5.9314e-05,-1.231e-05,0.0,4388683,0 STARLINK-3321,1 50803U 22001A   24202.50065307 -.00001231  00000-0 -59314-4 0  9992,2 50803  53.2182 330.0068 0001260  93.6965 266.4171 15.08830859141523,2022-001A,50803,6917.908,95.438,540.645,538.902,1
GENERATED VIA SPACETRACK.ORG API,18 SPCS,50803,STARLINK-3321,PAYLOAD,U,22001A,2024-07-20 13:36:19,489536,15.08832221,0.0001322,53.2185,329.7094,95.054,265.0604,0,999,14026,-4.6895e-05,-1.034e-05,0.0,4389230,0 STARLINK-3321,1 50803U 22001A   24202.56689224 -.00001034  00000-0 -46895-4 0  9999,2 50803  53.2185 329.7094 0001322  95.0540 265.0604 15.08832221140265,2022-001A,50803,6917.904,95.438,540.684,538.855,1
GENERATED VIA SPACETRACK.ORG API,18 SPCS,50803,STARLINK-3321,PAYLOAD,U,22001A,2024-07-20 15:11:42,453600,15.08834795,0.0001405,53.2189,329.4119,100.2293,259.8858,0,999,14027,-2.6078e-05,-7.03e-06,0.0,4389813,0 STARLINK-3321,1 50803U 22001A   24202.63313025 -.00000703  00000-0 -26078-4 0  9993,2 50803  53.2189 329.4119 0001405 100.2293 259.8858 15.08834795140271,2022-001A,50803,6917.896,95.438,540.733,538.789,1
GENERATED VIA SPACETRACK.ORG API,18 SPCS,50803,STARLINK-3321,PAYLOAD,U,22001A,2024-07-21 13:27:05,776992,15.08846705,0.0001275,53.2186,325.2481,99.4557,260.6579,0,999,14168,5.1355e-05,5.3e-06,0.0,4390602,0 STARLINK-3321,1 50803U 22001A   24203.56048353  .00000530  00000-0  51355-4 0  9997,2 50803  53.2186 325.2481 0001275  99.4557 260.6579 15.08846705141681,2022-001A,50803,6917.86,95.437,540.607,538.843,1
GENERATED VIA SPACETRACK.ORG API,18 SPCS,50803,STARLINK-3321,PAYLOAD,U,22001A,2024-07-21 15:02:28,885344,15.08846751,0.0001332,53.2184,324.9502,99.7801,260.3341,0,999,14042,0.00010813,1.434e-05,0.0,4391052,0 STARLINK-3321,1 50803U 22001A   24203.62672321  .00001434  00000-0  10813-3 0  9999,2 50803  53.2184 324.9502 0001332  99.7801 260.3341 15.08846751140424,2022-001A,50803,6917.86,95.437,540.646,538.803,1
GENERATED VIA SPACETRACK.ORG API,18 SPCS,50803,STARLINK-3321,PAYLOAD,U,22001A,2024-07-22 08:31:44,12064,15.08835731,0.0001449,53.2185,321.6814,104.8491,255.2662,0,999,14180,0.00020679,3.004e-05,0.0,4392319,0 STARLINK-3321,1 50803U 22001A   24204.35537051  .00003004  00000-0  20679-3 0  9996,2 50803  53.2185 321.6814 0001449 104.8491 255.2662 15.08835731141805,2022-001A,50803,6917.893,95.438,540.761,538.756,1
GENERATED VIA SPACETRACK.ORG API,18 SPCS,50803,STARLINK-3321,PAYLOAD,U,22001A,2024-07-22 08:31:44,12064,15.08835731,0.0001449,53.2185,321.6814,104.8491,255.2662,0,999,14053,0.00020679,3.004e-05,0.0,4392757,0 STARLINK-3321,1 50803U 22001A   24204.35537051  .00003004  00000-0  20679-3 0  9996,2 50803  53.2185 321.6814 0001449 104.8491 255.2662 15.08835731140534,2022-001A,50803,6917.893,95.438,540.761,538.756,1
GENERATED VIA SPACETRACK.ORG API,18 SPCS,50803,STARLINK-3321,PAYLOAD,U,22001A,2024-07-23 14:44:03,43968,15.0884791,0.000144,53.2193,316.033,98.5157,261.5999,0,999,14072,0.00011632,1.564e-05,0.0,4394545,0 STARLINK-3321,1 50803U 22001A   24205.61392412  .00001564  00000-0  11632-3 0  9994,2 50803  53.2193 316.0330 0001440  98.5157 261.5999 15.08847910140729,2022-001A,50803,6917.856,95.437,540.717,538.725,1
GENERATED VIA SPACETRACK.ORG API,18 SPCS,50803,STARLINK-3321,PAYLOAD,U,22001A,2024-07-23 14:44:03,43968,15.0884791,0.000144,53.2193,316.033,98.5157,261.5999,0,999,14199,0.00011632,1.564e-05,0.0,4394657,0 STARLINK-3321,1 50803U 22001A   24205.61392412  .00001564  00000-0  11632-3 0  9994,2 50803  53.2193 316.0330 0001440  98.5157 261.5999 15.08847910141999,2022-001A,50803,6917.856,95.437,540.717,538.725,1
GENERATED VIA SPACETRACK.ORG API,18 SPCS,50803,STARLINK-3321,PAYLOAD,U,22001A,2024-07-25 16:01:00,431040,15.08840692,0.0001446,53.2181,306.8157,98.8241,261.2915,0,999,14230,3.6301e-05,2.9e-06,0.0,4398233,0 STARLINK-3321,1 50803U 22001A   24207.66736610  .00000290  00000-0  36301-4 0  9999,2 50803  53.2181 306.8157 0001446  98.8241 261.2915 15.08840692142304,2022-001A,50803,6917.878,95.438,540.744,538.743,1
GENERATED VIA SPACETRACK.ORG API,18 SPCS,50803,STARLINK-3321,PAYLOAD,U,22001A,2024-07-26 06:19:28,578144,15.08843981,0.0001356,53.2185,304.1375,89.156,270.9588,0,999,14112,6.7831e-05,7.92e-06,0.0,4400028,0 STARLINK-3321,1 50803U 22001A   24208.26352521  .00000792  00000-0  67831-4 0  9990,2 50803  53.2185 304.1375 0001356  89.1560 270.9588 15.08843981141124,2022-001A,50803,6917.868,95.437,540.671,538.795,1
GENERATED VIA SPACETRACK.ORG API,18 SPCS,50803,STARLINK-3321,PAYLOAD,U,22001A,2024-07-26 14:16:24,283200,15.08853798,0.000174,53.2145,302.6502,82.3074,277.8116,0,999,14117,1.9517e-05,2.3e-07,0.0,4400718,0 STARLINK-3321,1 50803U 22001A   24208.59472550  .00000023  00000-0  19517-4 0  9996,2 50803  53.2145 302.6502 0001740  82.3074 277.8116 15.08853798141172,2022-001A,50803,6917.838,95.437,540.907,538.5,1
GENERATED VIA SPACETRACK.ORG API,18 SPCS,50803,STARLINK-3321,PAYLOAD,U,22001A,2024-07-27 09:21:02,450016,15.08843817,0.0001924,53.2142,299.0822,83.439,276.6821,0,999,14256,-0.00012061,-2.207e-05,0.0,4401271,0 STARLINK-3321,1 50803U 22001A   24209.38961169 -.00002207  00000-0 -12061-3 0  9997,2 50803  53.2142 299.0822 0001924  83.4390 276.6821 15.08843817142565,2022-001A,50803,6917.869,95.437,541.065,538.403,1
GENERATED VIA SPACETRACK.ORG API,18 SPCS,50803,STARLINK-3321,PAYLOAD,U,22001A,2024-07-27 15:42:34,687296,15.08839698,0.00018,53.2164,297.8882,97.8218,262.2978,0,999,14133,2.1705e-05,5.7e-07,0.0,4401937,0 STARLINK-3321,1 50803U 22001A   24209.65456814  .00000057  00000-0  21705-4 0  9998,2 50803  53.2164 297.8882 0001800  97.8218 262.2978 15.08839698141332,2022-001A,50803,6917.881,95.438,540.992,538.501,1
GENERATED VIA SPACETRACK.ORG API,18 SPCS,50803,STARLINK-3321,PAYLOAD,U,22001A,2024-07-28 12:22:34,948992,15.08847325,0.0001413,53.2171,294.0225,97.6585,262.4568,0,999,14273,-2.7077e-06,-3.31e-06,0.0,4403051,0 STARLINK-3321,1 50803U 22001A   24210.51568228 -.00000331  00000-0 -27077-5 0  9994,2 50803  53.2171 294.0225 0001413  97.6585 262.4568 15.08847325142733,2022-001A,50803,6917.858,95.437,540.7,538.746,1
GENERATED VIA SPACETRACK.ORG API,18 SPCS,50803,STARLINK-3321,PAYLOAD,U,22001A,2024-07-28 17:08:43,891296,15.08852624,0.0001411,53.2176,293.1319,94.3084,265.807,0,999,14149,4.5142e-05,4.31e-06,0.0,4404078,0 STARLINK-3321,1 50803U 22001A   24210.71439689  .00000431  00000-0  45142-4 0  9995,2 50803  53.2176 293.1319 0001411  94.3084 265.8070 15.08852624141493,2022-001A,50803,6917.842,95.437,540.683,538.731,1
GENERATED VIA SPACETRACK.ORG API,18 SPCS,50803,STARLINK-3321,PAYLOAD,U,22001A,2024-07-28 17:08:43,891296,15.08852624,0.0001411,53.2176,293.1319,94.3084,265.807,0,999,14276,4.5142e-05,4.31e-06,0.0,4404203,0 STARLINK-3321,1 50803U 22001A   24210.71439689  .00000431  00000-0  45142-4 0  9995,2 50803  53.2176 293.1319 0001411  94.3084 265.8070 15.08852624142764,2022-001A,50803,6917.842,95.437,540.683,538.731,1
GENERATED VIA SPACETRACK.ORG API,18 SPCS,50803,STARLINK-3321,PAYLOAD,U,22001A,2024-07-29 12:13:22,424448,15.08843767,0.0001468,53.2174,289.5678,79.2953,280.8204,0,999,14288,3.902e-05,3.33e-06,0.0,4404869,0 STARLINK-3321,1 50803U 22001A   24211.50928732  .00000333  00000-0  39020-4 0  9994,2 50803  53.2174 289.5678 0001468  79.2953 280.8204 15.08843767142885,2022-001A,50803,6917.869,95.437,540.749,538.718,1
GENERATED VIA SPACETRACK.ORG API,18 SPCS,50803,STARLINK-3321,PAYLOAD,U,22001A,2024-07-29 21:45:41,344128,15.08839226,0.0001248,53.2174,287.7813,78.6735,281.4397,0,999,14167,9.939e-05,1.294e-05,0.0,4405987,0 STARLINK-3321,1 50803U 22001A   24211.90672852  .00001294  00000-0  99390-4 0  9990,2 50803  53.2174 287.7813 0001248  78.6735 281.4397 15.08839226141674,2022-001A,50803,6917.883,95.438,540.611,538.884,1
